0 COSMOS 1285 DEB
1 27798U 81071M   13281.26276858  .00000475  00000-0  00000+0 0  1503
2 27798 069.5996 327.5536 5848124 114.7805 321.1920 01.98175379 94133
0 COSMOS 1285 DEB
1 27798U 81071M   13289.36634340 -.00000426  00000-0  00000+0 0  1514
2 27798 069.6043 327.0972 5844564 114.5460 342.6735 01.98182558 94291
